UNKNOWN                 
1 82369U          25337.30051655  .00000206  00000+0  16954-3 0  9998
2 82369  98.8991 352.6578 0083273   5.4067 354.7977 13.98158581555854
UNKNOWN                 
1 82381U          25336.08687391  .00026966  00000+0  35639-2 0  9999
2 82381  98.3957 200.3551 0007030 172.2784 187.8536 14.79927276509233
UNKNOWN                 
1 82402U          25334.52303282  .00007351  00000+0  54069-3 0  9990
2 82402  86.6643 160.8779 0006727 192.7262 167.3803 15.03235962452634
UNKNOWN                 
1 82410U          25336.49060459  .00000160  00000+0  23389-3 0  9995
2 82410  66.6577   3.6027 0056789  43.6123 316.9416 13.77235321585323
UNKNOWN                 
1 82432U          25337.33165580  .00002670  00000+0  56913-3 0  9991
2 82432  74.0070 358.5305 0055233 166.6977 193.5660 14.58502039481536
UNKNOWN                 
1 82448U          25338.63419882  .00014204  00000+0  10369-2 0  9999
2 82448  85.8733 203.6591 0007042 305.3057  54.7518 15.03561949435829
UNKNOWN                 
1 82453U          25335.61913345 -.00000008  00000+0  28316-3 0  9993
2 82453 102.1759 291.9967 0093367 227.7924 131.5185 12.39701327544689
UNKNOWN                 
1 82484U          25338.32969457  .00000365  00000+0  57994-3 0  9992
2 82484  99.3570   0.3881 0044466 215.8721 143.9429 13.55790698589491
UNKNOWN                 
1 82494U          25335.62171753  .00017444  00000+0  20259-2 0  9996
2 82494  74.0092  43.9598 0003368 223.0692 137.0224 14.85355470 83319
UNKNOWN                 
1 82500U          25338.37020835  .00007641  00000+0  34824-2 0  9994
2 82500  70.9678  21.5639 0115145 129.7795 231.3539 14.18422439617768
UNKNOWN                 
1 82524U          25333.93880361  .00007055  00000+0  22643-2 0  9990
2 82524  73.2815 206.2617 0135495 333.7674  36.4635 14.34504084575202
UNKNOWN                 
1 82529U          25336.99952581  .00000590  00000+0  97021-3 0  9998
2 82529  99.7904  60.6989 0238323 264.0269 279.8004 13.41089124588435
