CCSDS_OMM_VERS = 2.0
CREATION_DATE  = 
ORIGINATOR     = 

OBJECT_NAME    = UNKNOWN
OBJECT_ID      = 
CENTER_NAME    = EARTH
REF_FRAME      = TEME
TIME_SYSTEM    = UTC
MEAN_ELEMENT_THEORY = SGP/SGP4

EPOCH          = 2025-12-03T07:12:44.629920
MEAN_MOTION    = 13.98158581
ECCENTRICITY   = .0083273
INCLINATION    = 98.8991
RA_OF_ASC_NODE = 352.6578
ARG_OF_PERICENTER = 5.4067
MEAN_ANOMALY   = 354.7977

EPHEMERIS_TYPE = 0
CLASSIFICATION_TYPE = U
NORAD_CAT_ID   = 82369
ELEMENT_SET_NO = 999
REV_AT_EPOCH   = 55585
BSTAR          = .16954E-3
MEAN_MOTION_DOT = .206E-5
MEAN_MOTION_DDOT = 0

CCSDS_OMM_VERS = 2.0
CREATION_DATE  = 
ORIGINATOR     = 

OBJECT_NAME    = UNKNOWN
OBJECT_ID      = 
CENTER_NAME    = EARTH
REF_FRAME      = TEME
TIME_SYSTEM    = UTC
MEAN_ELEMENT_THEORY = SGP/SGP4

EPOCH          = 2025-12-02T02:05:05.905824
MEAN_MOTION    = 14.79927276
ECCENTRICITY   = .000703
INCLINATION    = 98.3957
RA_OF_ASC_NODE = 200.3551
ARG_OF_PERICENTER = 172.2784
MEAN_ANOMALY   = 187.8536

EPHEMERIS_TYPE = 0
CLASSIFICATION_TYPE = U
NORAD_CAT_ID   = 82381
ELEMENT_SET_NO = 999
REV_AT_EPOCH   = 50923
BSTAR          = .35639E-2
MEAN_MOTION_DOT = .26966E-3
MEAN_MOTION_DDOT = 0

CCSDS_OMM_VERS = 2.0
CREATION_DATE  = 
ORIGINATOR     = 

OBJECT_NAME    = UNKNOWN
OBJECT_ID      = 
CENTER_NAME    = EARTH
REF_FRAME      = TEME
TIME_SYSTEM    = UTC
MEAN_ELEMENT_THEORY = SGP/SGP4

EPOCH          = 2025-11-30T12:33:10.035648
MEAN_MOTION    = 15.03235962
ECCENTRICITY   = .0006727
INCLINATION    = 86.6643
RA_OF_ASC_NODE = 160.8779
ARG_OF_PERICENTER = 192.7262
MEAN_ANOMALY   = 167.3803

EPHEMERIS_TYPE = 0
CLASSIFICATION_TYPE = U
NORAD_CAT_ID   = 82402
ELEMENT_SET_NO = 999
REV_AT_EPOCH   = 45263
BSTAR          = .54069E-3
MEAN_MOTION_DOT = .7351E-4
MEAN_MOTION_DDOT = 0

CCSDS_OMM_VERS = 2.0
CREATION_DATE  = 
ORIGINATOR     = 

OBJECT_NAME    = UNKNOWN
OBJECT_ID      = 
CENTER_NAME    = EARTH
REF_FRAME      = TEME
TIME_SYSTEM    = UTC
MEAN_ELEMENT_THEORY = SGP/SGP4

EPOCH          = 2025-12-02T11:46:28.236576
MEAN_MOTION    = 13.77235321
ECCENTRICITY   = .0056789
INCLINATION    = 66.6577
RA_OF_ASC_NODE = 3.6027
ARG_OF_PERICENTER = 43.6123
MEAN_ANOMALY   = 316.9416

EPHEMERIS_TYPE = 0
CLASSIFICATION_TYPE = U
NORAD_CAT_ID   = 82410
ELEMENT_SET_NO = 999
REV_AT_EPOCH   = 58532
BSTAR          = .23389E-3
MEAN_MOTION_DOT = .16E-5
MEAN_MOTION_DDOT = 0

CCSDS_OMM_VERS = 2.0
CREATION_DATE  = 
ORIGINATOR     = 

OBJECT_NAME    = UNKNOWN
OBJECT_ID      = 
CENTER_NAME    = EARTH
REF_FRAME      = TEME
TIME_SYSTEM    = UTC
MEAN_ELEMENT_THEORY = SGP/SGP4

EPOCH          = 2025-12-03T07:57:35.061120
MEAN_MOTION    = 14.58502039
ECCENTRICITY   = .0055233
INCLINATION    = 74.0070
RA_OF_ASC_NODE = 358.5305
ARG_OF_PERICENTER = 166.6977
MEAN_ANOMALY   = 193.5660

EPHEMERIS_TYPE = 0
CLASSIFICATION_TYPE = U
NORAD_CAT_ID   = 82432
ELEMENT_SET_NO = 999
REV_AT_EPOCH   = 48153
BSTAR          = .56913E-3
MEAN_MOTION_DOT = .267E-4
MEAN_MOTION_DDOT = 0

CCSDS_OMM_VERS = 2.0
CREATION_DATE  = 
ORIGINATOR     = 

OBJECT_NAME    = UNKNOWN
OBJECT_ID      = 
CENTER_NAME    = EARTH
REF_FRAME      = TEME
TIME_SYSTEM    = UTC
MEAN_ELEMENT_THEORY = SGP/SGP4

EPOCH          = 2025-12-04T15:13:14.778048
MEAN_MOTION    = 15.03561949
ECCENTRICITY   = .0007042
INCLINATION    = 85.8733
RA_OF_ASC_NODE = 203.6591
ARG_OF_PERICENTER = 305.3057
MEAN_ANOMALY   = 54.7518

EPHEMERIS_TYPE = 0
CLASSIFICATION_TYPE = U
NORAD_CAT_ID   = 82448
ELEMENT_SET_NO = 999
REV_AT_EPOCH   = 43582
BSTAR          = .10369E-2
MEAN_MOTION_DOT = .14204E-3
MEAN_MOTION_DDOT = 0

CCSDS_OMM_VERS = 2.0
CREATION_DATE  = 
ORIGINATOR     = 

OBJECT_NAME    = UNKNOWN
OBJECT_ID      = 
CENTER_NAME    = EARTH
REF_FRAME      = TEME
TIME_SYSTEM    = UTC
MEAN_ELEMENT_THEORY = SGP/SGP4

EPOCH          = 2025-12-01T14:51:33.130080
MEAN_MOTION    = 12.39701327
ECCENTRICITY   = .0093367
INCLINATION    = 102.1759
RA_OF_ASC_NODE = 291.9967
ARG_OF_PERICENTER = 227.7924
MEAN_ANOMALY   = 131.5185

EPHEMERIS_TYPE = 0
CLASSIFICATION_TYPE = U
NORAD_CAT_ID   = 82453
ELEMENT_SET_NO = 999
REV_AT_EPOCH   = 54468
BSTAR          = .28316E-3
MEAN_MOTION_DOT = -.8E-7
MEAN_MOTION_DDOT = 0

CCSDS_OMM_VERS = 2.0
CREATION_DATE  = 
ORIGINATOR     = 

OBJECT_NAME    = UNKNOWN
OBJECT_ID      = 
CENTER_NAME    = EARTH
REF_FRAME      = TEME
TIME_SYSTEM    = UTC
MEAN_ELEMENT_THEORY = SGP/SGP4

EPOCH          = 2025-12-04T07:54:45.610848
MEAN_MOTION    = 13.55790698
ECCENTRICITY   = .0044466
INCLINATION    = 99.3570
RA_OF_ASC_NODE = 0.3881
ARG_OF_PERICENTER = 215.8721
MEAN_ANOMALY   = 143.9429

EPHEMERIS_TYPE = 0
CLASSIFICATION_TYPE = U
NORAD_CAT_ID   = 82484
ELEMENT_SET_NO = 999
REV_AT_EPOCH   = 58949
BSTAR          = .57994E-3
MEAN_MOTION_DOT = .365E-5
MEAN_MOTION_DDOT = 0

CCSDS_OMM_VERS = 2.0
CREATION_DATE  = 
ORIGINATOR     = 

OBJECT_NAME    = UNKNOWN
OBJECT_ID      = 
CENTER_NAME    = EARTH
REF_FRAME      = TEME
TIME_SYSTEM    = UTC
MEAN_ELEMENT_THEORY = SGP/SGP4

EPOCH          = 2025-12-01T14:55:16.394592
MEAN_MOTION    = 14.85355470
ECCENTRICITY   = .0003368
INCLINATION    = 74.0092
RA_OF_ASC_NODE = 43.9598
ARG_OF_PERICENTER = 223.0692
MEAN_ANOMALY   = 137.0224

EPHEMERIS_TYPE = 0
CLASSIFICATION_TYPE = U
NORAD_CAT_ID   = 82494
ELEMENT_SET_NO = 999
REV_AT_EPOCH   = 8331
BSTAR          = .20259E-2
MEAN_MOTION_DOT = .17444E-3
MEAN_MOTION_DDOT = 0

CCSDS_OMM_VERS = 2.0
CREATION_DATE  = 
ORIGINATOR     = 

OBJECT_NAME    = UNKNOWN
OBJECT_ID      = 
CENTER_NAME    = EARTH
REF_FRAME      = TEME
TIME_SYSTEM    = UTC
MEAN_ELEMENT_THEORY = SGP/SGP4

EPOCH          = 2025-12-04T08:53:06.001440
MEAN_MOTION    = 14.18422439
ECCENTRICITY   = .0115145
INCLINATION    = 70.9678
RA_OF_ASC_NODE = 21.5639
ARG_OF_PERICENTER = 129.7795
MEAN_ANOMALY   = 231.3539

EPHEMERIS_TYPE = 0
CLASSIFICATION_TYPE = U
NORAD_CAT_ID   = 82500
ELEMENT_SET_NO = 999
REV_AT_EPOCH   = 61776
BSTAR          = .34824E-2
MEAN_MOTION_DOT = .7641E-4
MEAN_MOTION_DDOT = 0

CCSDS_OMM_VERS = 2.0
CREATION_DATE  = 
ORIGINATOR     = 

OBJECT_NAME    = UNKNOWN
OBJECT_ID      = 
CENTER_NAME    = EARTH
REF_FRAME      = TEME
TIME_SYSTEM    = UTC
MEAN_ELEMENT_THEORY = SGP/SGP4

EPOCH          = 2025-11-29T22:31:52.631904
MEAN_MOTION    = 14.34504084
ECCENTRICITY   = .0135495
INCLINATION    = 73.2815
RA_OF_ASC_NODE = 206.2617
ARG_OF_PERICENTER = 333.7674
MEAN_ANOMALY   = 36.4635

EPHEMERIS_TYPE = 0
CLASSIFICATION_TYPE = U
NORAD_CAT_ID   = 82524
ELEMENT_SET_NO = 999
REV_AT_EPOCH   = 57520
BSTAR          = .22643E-2
MEAN_MOTION_DOT = .7055E-4
MEAN_MOTION_DDOT = 0

CCSDS_OMM_VERS = 2.0
CREATION_DATE  = 
ORIGINATOR     = 

OBJECT_NAME    = UNKNOWN
OBJECT_ID      = 
CENTER_NAME    = EARTH
REF_FRAME      = TEME
TIME_SYSTEM    = UTC
MEAN_ELEMENT_THEORY = SGP/SGP4

EPOCH          = 2025-12-02T23:59:19.029984
MEAN_MOTION    = 13.41089124
ECCENTRICITY   = .0238323
INCLINATION    = 99.7904
RA_OF_ASC_NODE = 60.6989
ARG_OF_PERICENTER = 264.0269
MEAN_ANOMALY   = 279.8004

EPHEMERIS_TYPE = 0
CLASSIFICATION_TYPE = U
NORAD_CAT_ID   = 82529
ELEMENT_SET_NO = 999
REV_AT_EPOCH   = 58843
BSTAR          = .97021E-3
MEAN_MOTION_DOT = .59E-5
MEAN_MOTION_DDOT = 0

